OBJECT_NAME,OBJECT_ID,EPOCH,MEAN_MOTION,ECCENTRICITY,INCLINATION,RA_OF_ASC_NODE,ARG_OF_PERICENTER,MEAN_ANOMALY,EPHEMERIS_TYPE,CLASSIFICATION_TYPE,NORAD_CAT_ID,ELEMENT_SET_NO,REV_AT_EPOCH,BSTAR,MEAN_MOTION_DOT,MEAN_MOTION_DDOT
SL-8 R/B,1985-006B,2026-07-09T00:30:14.372352,14.37843035,.00192651,74.0450,37.8842,281.8181,238.1093,0,U,15483,999,17146,.47310842E-4,.116E-5,0
SL-12 R/B(2),1985-042D,2026-07-10T00:20:13.969248,14.22010269,.00372201,71.1062,189.2881,293.7918,75.7945,0,U,15772,999,13178,.36618151E-4,.34E-6,0
SL-14 R/B,1985-069B,2026-07-10T14:15:26.986176,14.86533246,.0019767,82.5267,269.3535,141.6391,218.6236,0,U,15945,999,19109,.24265E-4,.24E-5,0
SL-16 R/B,1985-097B,2026-07-10T03:21:25.066944,14.16612475,.00054343,71.0012,242.7563,61.6528,328.8116,0,U,16182,999,10457,-.69721176E-4,-.187E-5,0
SL-14 R/B,1986-006B,2026-07-10T08:02:24.370656,14.86966017,.00751178,82.5280,144.3305,225.1886,134.3210,0,U,16496,999,16743,.2948639E-4,.304E-5,0
COSMOS 1743,1986-034A,2026-07-10T07:29:26.822400,15.69223519,.000521,82.5274,304.1058,192.4255,167.6879,0,U,16719,999,19941,.38200588E-3,.44608E-3,0
SL-14 R/B,1986-046B,2026-07-10T09:20:09.117024,14.85688335,.00230947,82.4835,324.2512,178.7399,181.3880,0,U,16792,999,14462,.31307736E-4,.297E-5,0
SL-14 R/B,1986-055B,2026-07-10T12:09:38.568096,14.85738315,.00173662,82.5198,11.2049,287.2688,88.8113,0,U,16882,999,13760,.27006414E-4,.259E-5,0
AJISAI (EGS),1986-061A,2026-07-10T20:06:49.552992,12.44516678,.0011105,50.0103,74.6695,240.7730,242.8151,0,U,16908,999,48333,-.35524E-4,-.102E-5,0
SL-14 R/B,1987-024B,2026-07-10T15:31:49.260288,14.86229611,.0017441,82.5293,337.1983,209.3156,150.7084,0,U,17567,999,10639,.27437E-4,.266E-5,0
COSMOS 1833,1987-027A,2026-07-10T19:44:41.933184,14.13065191,.0023938,70.9211,67.1908,15.7836,344.4026,0,U,17589,999,2771,.9279E-4,.126E-5,0
SL-16 R/B,1987-027B,2026-07-10T12:12:46.773216,14.17173452,.0007136,71.0028,17.6821,286.8557,73.1784,0,U,17590,999,3274,-.67982E-4,-.185E-5,0
SL-14 R/B,1987-038B,2026-07-10T10:27:45.174528,14.85459504,.00206701,82.5008,181.1726,116.8241,243.5092,0,U,17912,999,9745,.28622923E-4,.272E-5,0
COSMOS 1844,1987-041A,2026-07-10T07:13:46.759296,14.14578453,.00316392,70.8994,135.5520,202.1792,157.7963,0,U,17973,999,2092,.14706967E-3,.235E-5,0
SL-14 R/B,1987-055B,2026-07-10T02:55:20.883936,14.85725163,.00197864,82.4974,233.6088,332.7035,27.3139,0,U,18153,999,8811,.24292368E-4,.236E-5,0
COSMOS 1867,1987-060A,2026-07-10T07:50:55.887072,14.31518246,.00170337,65.0120,323.2532,282.0522,77.8653,0,U,18187,999,3749,.9383017E-5,-.75E-6,0
SL-14 R/B,1988-001B,2026-07-10T04:37:35.566464,14.85624864,.00177056,82.5126,80.1300,188.3523,171.7402,0,U,18749,999,6021,.23502576E-4,.228E-5,0
COSMOS 1933,1988-020A,2026-07-10T16:33:22.070592,15.18871699,.0005726,82.5136,129.1594,119.0584,241.1225,0,U,18958,999,6889,.11679E-3,.2466E-4,0
SL-3 R/B,1988-032B,2026-07-10T19:06:58.712832,15.21010678,.0026071,97.5267,174.8172,160.5395,199.6842,0,U,19046,999,7081,.10688E-3,.2319E-4,0
SL-16 R/B,1988-039B,2026-07-10T08:57:36.961344,14.19631888,.00208562,71.0135,169.1303,157.2540,202.9514,0,U,19120,999,97579,-.4715608E-4,-.148E-5,0
COSMOS 1953,1988-050A,2026-07-10T11:54:00.567360,15.30295283,.00118737,82.5066,34.5222,55.0488,305.1865,0,U,19210,999,5655,.17950702E-3,.5303E-4,0
SL-8 R/B,1988-053B,2026-07-10T14:12:24.316704,14.38976700,.0019578,74.0461,245.9149,32.9366,123.3077,0,U,19257,999,99427,.44406E-4,.111E-5,0
COSMOS 1975,1988-093A,2026-07-10T16:58:01.247232,15.29628088,.001257,82.5192,354.0365,96.2487,264.0186,0,U,19573,999,3820,.14872E-3,.4312E-4,0
SL-14 R/B,1988-093B,2026-07-10T19:02:56.443776,14.85758395,.0020404,82.5317,286.4836,355.1786,154.9390,0,U,19574,999,1929,.21201E-4,.209E-5,0
SL-16 R/B,1988-102B,2026-07-10T04:09:32.634432,14.16168152,.00145754,70.9987,253.7742,193.3810,166.6929,0,U,19650,999,94423,-.10491177E-3,-.256E-5,0
INTERCOSMOS 24,1989-080A,2026-07-10T06:52:08.142240,12.59690178,.11874588,82.6046,24.6107,8.3390,353.5638,0,U,20261,999,68223,.92730846E-4,.331E-5,0
SL-14 R/B,1989-080C,2026-07-10T16:22:29.562240,12.50577922,.1228539,82.5939,94.2123,263.6192,82.3924,0,U,20262,999,67552,.13567E-4,.47E-6,0
DELTA 1 R/B,1989-089B,2026-07-09T23:31:30.775584,14.50745796,.00706221,97.0634,18.8908,96.0860,264.8391,0,U,20323,999,91346,.55741818E-4,.192E-5,0
ARIANE 40 R/B,1990-005H,2026-07-10T02:45:12.988224,14.39939292,.00099145,98.2947,248.0166,189.0779,171.0232,0,U,20443,999,91042,.54981344E-4,.131E-5,0
DELTA 2 R/B(1),1990-008B,2026-07-10T00:11:40.932960,15.72802134,.00613932,35.5999,82.5578,327.2040,32.4898,0,U,20453,999,94529,.59121765E-3,.94257E-3,0
